start=new Date('2022-03-17T00:00:00.000Z').valueOf();
sats=[{"OBJECT_ID":"2020-012AJ","SEMIMAJOR_AXIS":"6925.424","MEAN_MOTION_DOT":"-0.00001087","ARG_OF_PERICENTER":"54.4412","ECCENTRICITY":"0.00017420","TIME_SYSTEM":"UTC","EPOCH":"2022-03-16T16:23:31.653600","PERIAPSIS":"546.082","MEAN_MOTION_DDOT":"0.0000000000000","MEAN_ELEMENT_THEORY":"SGP4","REF_FRAME":"TEME","CLASSIFICATION_TYPE":"U","TLE_LINE1":"1 45210U 20012AJ  22075.68300525 -.00001087  00000-0 -54107-4 0  9991","MEAN_MOTION":"15.06375523","TLE_LINE2":"2 45210  53.0552  73.9178 0001742  54.4412 305.6739 15.06375523115853","COUNTRY_CODE":"US","OBJECT_NAME":"STARLINK-1219","OBJECT_TYPE":"PAYLOAD","DECAY_DATE":null,"PERIOD":"95.594","LAUNCH_DATE":"2020-02-17","MEAN_ANOMALY":"305.6739","INCLINATION":"53.0552","NORAD_CAT_ID":"45210","RA_OF_ASC_NODE":"73.9178","SITE":"AFETR","RCS_SIZE":"LARGE","REV_AT_EPOCH":"11585","CENTER_NAME":"EARTH","FILE":"3362094","BSTAR":"-0.00005410700000","GP_ID":"198920291","APOAPSIS":"548.495","EPHEMERIS_TYPE":"0","ELEMENT_SET_NO":"999"},{"CENTER_NAME":"EARTH","EPHEMERIS_TYPE":"0","ELEMENT_SET_NO":"999","APOAPSIS":"548.526","BSTAR":"-0.00024430000000","FILE":"3362094","GP_ID":"198919953","RA_OF_ASC_NODE":"73.7529","SITE":"AFETR","NORAD_CAT_ID":"45212","INCLINATION":"53.0547","PERIOD":"95.594","LAUNCH_DATE":"2020-02-17","MEAN_ANOMALY":"306.8066","DECAY_DATE":null,"REV_AT_EPOCH":"11592","RCS_SIZE":"LARGE","MEAN_MOTION":"15.06377486","REF_FRAME":"TEME","TLE_LINE1":"1 45212U 20012AL  22075.71616994 -.00003916  00000-0 -24430-3 0  9995","CLASSIFICATION_TYPE":"U","MEAN_ELEMENT_THEORY":"SGP4","MEAN_MOTION_DDOT":"0.0000000000000","EPOCH":"2022-03-16T17:11:17.082816","PERIAPSIS":"546.039","OBJECT_TYPE":"PAYLOAD","OBJECT_NAME":"STARLINK-1231","TLE_LINE2":"2 45212  53.0547  73.7529 0001796  53.3088 306.8066 15.06377486115927","COUNTRY_CODE":"US","OBJECT_ID":"2020-012AL","MEAN_MOTION_DOT":"-0.00003916","ECCENTRICITY":"0.00017960","ARG_OF_PERICENTER":"53.3088","TIME_SYSTEM":"UTC","SEMIMAJOR_AXIS":"6925.418"},{"GP_ID":"198918804","BSTAR":"0.00094721000000","FILE":"3362094","APOAPSIS":"463.479","ELEMENT_SET_NO":"999","EPHEMERIS_TYPE":"0","CENTER_NAME":"EARTH","RCS_SIZE":"LARGE","REV_AT_EPOCH":"11611","DECAY_DATE":null,"MEAN_ANOMALY":"357.3396","PERIOD":"93.821","LAUNCH_DATE":"2020-02-17","INCLINATION":"53.0601","NORAD_CAT_ID":"45213","SITE":"AFETR","RA_OF_ASC_NODE":"63.7516","COUNTRY_CODE":"US","TLE_LINE2":"2 45213  53.0601  63.7516 0003007   2.7621 357.3396 15.34831861116114","OBJECT_NAME":"STARLINK-1232","OBJECT_TYPE":"PAYLOAD","PERIAPSIS":"459.365","EPOCH":"2022-03-16T16:25:26.440320","MEAN_MOTION_DDOT":"0.0000000000000","MEAN_ELEMENT_THEORY":"SGP4","CLASSIFICATION_TYPE":"U","TLE_LINE1":"1 45213U 20012AM  22075.68433380  .00032212  00000-0  94721-3 0  9997","REF_FRAME":"TEME","MEAN_MOTION":"15.34831861","SEMIMAJOR_AXIS":"6839.557","TIME_SYSTEM":"UTC","ARG_OF_PERICENTER":"2.7621","ECCENTRICITY":"0.00030070","MEAN_MOTION_DOT":"0.00032212","OBJECT_ID":"2020-012AM"},{"SITE":"AFETR","RA_OF_ASC_NODE":"73.8786","INCLINATION":"53.0564","NORAD_CAT_ID":"45214","MEAN_ANOMALY":"306.1763","PERIOD":"95.592","LAUNCH_DATE":"2020-02-17","DECAY_DATE":null,"REV_AT_EPOCH":"11596","RCS_SIZE":"LARGE","CENTER_NAME":"EARTH","ELEMENT_SET_NO":"999","EPHEMERIS_TYPE":"0","APOAPSIS":"548.557","GP_ID":"198919544","FILE":"3362094","BSTAR":"0.00010152000000","OBJECT_ID":"2020-012AN","ARG_OF_PERICENTER":"53.9403","ECCENTRICITY":"0.00019210","TIME_SYSTEM":"UTC","MEAN_MOTION_DOT":"0.00001231","SEMIMAJOR_AXIS":"6925.362","MEAN_MOTION":"15.06395762","TLE_LINE1":"1 45214U 20012AN  22075.69035709  .00001231  00000-0  10152-3 0  9995","CLASSIFICATION_TYPE":"U","REF_FRAME":"TEME","MEAN_MOTION_DDOT":"0.0000000000000","MEAN_ELEMENT_THEORY":"SGP4","PERIAPSIS":"545.896","EPOCH":"2022-03-16T16:34:06.852576","OBJECT_NAME":"STARLINK-1233","OBJECT_TYPE":"PAYLOAD","COUNTRY_CODE":"US","TLE_LINE2":"2 45214  53.0564  73.8786 0001921  53.9403 306.1763 15.06395762115969"},{"REV_AT_EPOCH":"11590","RCS_SIZE":"LARGE","RA_OF_ASC_NODE":"73.8872","SITE":"AFETR","NORAD_CAT_ID":"45215","INCLINATION":"53.0549","PERIOD":"95.593","LAUNCH_DATE":"2020-02-17","MEAN_ANOMALY":"306.0942","DECAY_DATE":null,"ELEMENT_SET_NO":"999","EPHEMERIS_TYPE":"0","APOAPSIS":"548.555","FILE":"3362094","BSTAR":"-0.00012566000000","GP_ID":"198919792","CENTER_NAME":"EARTH","MEAN_MOTION_DOT":"-0.00002152","ARG_OF_PERICENTER":"54.0219","ECCENTRICITY":"0.00018560","TIME_SYSTEM":"UTC","SEMIMAJOR_AXIS":"6925.405","OBJECT_ID":"2020-012AP","OBJECT_TYPE":"PAYLOAD","OBJECT_NAME":"STARLINK-1245","TLE_LINE2":"2 45215  53.0549  73.8872 0001856  54.0219 306.0942 15.06381739115904","COUNTRY_CODE":"US","MEAN_MOTION":"15.06381739","REF_FRAME":"TEME","CLASSIFICATION_TYPE":"U","TLE_LINE1":"1 45215U 20012AP  22075.68668606 -.00002152  00000-0 -12566-3 0  9999","MEAN_MOTION_DDOT":"0.0000000000000","MEAN_ELEMENT_THEORY":"SGP4","EPOCH":"2022-03-16T16:28:49.675584","PERIAPSIS":"545.984"},{"OBJECT_ID":"2020-012AR","ARG_OF_PERICENTER":"59.1065","ECCENTRICITY":"0.00017970","TIME_SYSTEM":"UTC","MEAN_MOTION_DOT":"-0.00004126","SEMIMAJOR_AXIS":"6925.426","CLASSIFICATION_TYPE":"U","TLE_LINE1":"1 45217U 20012AR  22075.72722883 -.00004126  00000-0 -25843-3 0  9999","REF_FRAME":"TEME","MEAN_MOTION":"15.06374804","PERIAPSIS":"546.046","EPOCH":"2022-03-16T17:27:12.570912","MEAN_MOTION_DDOT":"0.0000000000000","MEAN_ELEMENT_THEORY":"SGP4","COUNTRY_CODE":"US","TLE_LINE2":"2 45217  53.0542  73.7116 0001797  59.1065 301.0100 15.06374804115971","OBJECT_NAME":"STARLINK-1271","OBJECT_TYPE":"PAYLOAD","NORAD_CAT_ID":"45217","INCLINATION":"53.0542","SITE":"AFETR","RA_OF_ASC_NODE":"73.7116","DECAY_DATE":null,"MEAN_ANOMALY":"301.0100","LAUNCH_DATE":"2020-02-17","PERIOD":"95.594","REV_AT_EPOCH":"11597","RCS_SIZE":"LARGE","CENTER_NAME":"EARTH","EPHEMERIS_TYPE":"0","ELEMENT_SET_NO":"999","GP_ID":"198920453","FILE":"3362094","BSTAR":"-0.00025843000000","APOAPSIS":"548.535"},{"MEAN_ELEMENT_THEORY":"SGP4","MEAN_MOTION_DDOT":"0.0000000000000","PERIAPSIS":"546.160","EPOCH":"2022-03-16T15:49:00.540192","MEAN_MOTION":"15.06379217","CLASSIFICATION_TYPE":"U","TLE_LINE1":"1 45219U 20012AT  22075.65903403 -.00003005  00000-0 -18300-3 0  9997","REF_FRAME":"TEME","OBJECT_TYPE":"PAYLOAD","OBJECT_NAME":"STARLINK-1187","COUNTRY_CODE":"US","TLE_LINE2":"2 45219  53.0548  54.0150 0001613  56.4328 303.6815 15.06379217116254","OBJECT_ID":"2020-012AT","SEMIMAJOR_AXIS":"6925.412","ECCENTRICITY":"0.00016130","ARG_OF_PERICENTER":"56.4328","TIME_SYSTEM":"UTC","MEAN_MOTION_DOT":"-0.00003005","CENTER_NAME":"EARTH","APOAPSIS":"548.394","GP_ID":"198919304","FILE":"3362094","BSTAR":"-0.00018300000000","EPHEMERIS_TYPE":"0","ELEMENT_SET_NO":"999","MEAN_ANOMALY":"303.6815","LAUNCH_DATE":"2020-02-17","PERIOD":"95.593","DECAY_DATE":null,"SITE":"AFETR","RA_OF_ASC_NODE":"54.0150","INCLINATION":"53.0548","NORAD_CAT_ID":"45219","RCS_SIZE":"LARGE","REV_AT_EPOCH":"11625"},{"REV_AT_EPOCH":"11624","RCS_SIZE":"LARGE","NORAD_CAT_ID":"45221","INCLINATION":"53.0552","RA_OF_ASC_NODE":"54.0063","SITE":"AFETR","DECAY_DATE":null,"PERIOD":"95.593","LAUNCH_DATE":"2020-02-17","MEAN_ANOMALY":"301.3461","EPHEMERIS_TYPE":"0","ELEMENT_SET_NO":"999","FILE":"3362094","BSTAR":"0.00000854550000","GP_ID":"198919543","APOAPSIS":"548.372","CENTER_NAME":"EARTH","MEAN_MOTION_DOT":"-0.00000154","TIME_SYSTEM":"UTC","ARG_OF_PERICENTER":"58.7686","ECCENTRICITY":"0.00016100","SEMIMAJOR_AXIS":"6925.392","OBJECT_ID":"2020-012AV","TLE_LINE2":"2 45221  53.0552  54.0063 0001610  58.7686 301.3461 15.06385889116247","COUNTRY_CODE":"US","OBJECT_NAME":"STARLINK-1189","OBJECT_TYPE":"PAYLOAD","REF_FRAME":"TEME","CLASSIFICATION_TYPE":"U","TLE_LINE1":"1 45221U 20012AV  22075.66272140 -.00000154  00000-0  85455-5 0  9996","MEAN_MOTION":"15.06385889","EPOCH":"2022-03-16T15:54:19.128960","PERIAPSIS":"546.142","MEAN_ELEMENT_THEORY":"SGP4","MEAN_MOTION_DDOT":"0.0000000000000"},{"EPOCH":"2022-03-16T16:04:57.051264","PERIAPSIS":"546.109","MEAN_MOTION_DDOT":"0.0000000000000","MEAN_ELEMENT_THEORY":"SGP4","REF_FRAME":"TEME","CLASSIFICATION_TYPE":"U","TLE_LINE1":"1 45222U 20012AW  22075.67010476 -.00000340  00000-0 -39096-5 0  9998","MEAN_MOTION":"15.06386798","TLE_LINE2":"2 45222  53.0545  53.9679 0001653  59.2825 300.8327 15.06386798116244","COUNTRY_CODE":"US","OBJECT_TYPE":"PAYLOAD","OBJECT_NAME":"STARLINK-1191","OBJECT_ID":"2020-012AW","SEMIMAJOR_AXIS":"6925.389","MEAN_MOTION_DOT":"-0.00000340","ARG_OF_PERICENTER":"59.2825","ECCENTRICITY":"0.00016530","TIME_SYSTEM":"UTC","CENTER_NAME":"EARTH","BSTAR":"-0.00000390960000","FILE":"3362094","GP_ID":"198920292","APOAPSIS":"548.399","EPHEMERIS_TYPE":"0","ELEMENT_SET_NO":"999","DECAY_DATE":null,"PERIOD":"95.593","LAUNCH_DATE":"2020-02-17","MEAN_ANOMALY":"300.8327","INCLINATION":"53.0545","NORAD_CAT_ID":"45222","RA_OF_ASC_NODE":"53.9679","SITE":"AFETR","RCS_SIZE":"LARGE","REV_AT_EPOCH":"11624"},{"TLE_LINE2":"2 45223  53.0546  54.1758 0001781  48.8487 311.2655 15.06355123116245","COUNTRY_CODE":"US","OBJECT_NAME":"STARLINK-1212","OBJECT_TYPE":"PAYLOAD","EPOCH":"2022-03-16T15:01:14.212416","PERIAPSIS":"546.118","MEAN_MOTION_DDOT":"0.0000000000000","MEAN_ELEMENT_THEORY":"SGP4","REF_FRAME":"TEME","CLASSIFICATION_TYPE":"U","TLE_LINE1":"1 45223U 20012AX  22075.62585894  .00002477  00000-0  18535-3 0  9999","MEAN_MOTION":"15.06355123","SEMIMAJOR_AXIS":"6925.486","MEAN_MOTION_DOT":"0.00002477","ARG_OF_PERICENTER":"48.8487","TIME_SYSTEM":"UTC","ECCENTRICITY":"0.00017810","OBJECT_ID":"2020-012AX","BSTAR":"0.00018535000000","FILE":"3362094","GP_ID":"198919954","APOAPSIS":"548.585","EPHEMERIS_TYPE":"0","ELEMENT_SET_NO":"999","CENTER_NAME":"EARTH","RCS_SIZE":"LARGE","REV_AT_EPOCH":"11624","DECAY_DATE":null,"PERIOD":"95.595","LAUNCH_DATE":"2020-02-17","MEAN_ANOMALY":"311.2655","INCLINATION":"53.0546","NORAD_CAT_ID":"45223","RA_OF_ASC_NODE":"54.1758","SITE":"AFETR"}];
